NORAD_CAT_ID,OBJECT_NAME,OBJECT_TYPE,EPOCH,MEAN_MOTION,ECCENTRICITY,INCLINATION,RA_OF_ASC_NODE,ARG_OF_PERICENTER,MEAN_ANOMALY,BSTAR,MEAN_MOTION_DOT,MEAN_MOTION_DDOT,TLE_LINE0,TLE_LINE1,TLE_LINE2,SEMIMAJOR_AXIS,PERIOD,APOGEE,PERIGEE,DECAYED
52554.0,STARLINK-3770,PAYLOAD,2022-10-06 15:00:12,15.088420800000002,0.0002065,53.218,345.8928,46.1678,313.9484,0.00071112,0.00011048,0.0,0 STARLINK-3770,1 52554U 22051X   22279.62513980  .00011048  00000-0  71112-3 0  9996,2 52554  53.2180 345.8928 0002065  46.1678 313.9484 15.08842080 22659,6917.874,95.437,541.168,538.31,0.0
52554.0,STARLINK-3770,PAYLOAD,2022-10-07 10:04:49,15.08855499,0.0001764,53.2179,342.3223,43.7696,316.3436,0.00070889,0.00011017,0.0,0 STARLINK-3770,1 52554U 22051X   22280.42001242  .00011017  00000-0  70889-3 0  9995,2 52554  53.2179 342.3223 0001764  43.7696 316.3436 15.08855499 22770,6917.833000000001,95.437,540.918,538.4780000000002,0.0
52554.0,STARLINK-3770,PAYLOAD,2022-10-07 16:26:21,15.08841781,0.0002078,53.2174,341.1343,38.7599,321.3542,2.79e-05,1.56e-06,0.0,0 STARLINK-3770,1 52554U 22051X   22280.68497498  .00000156  00000-0  27900-4 0  9994,2 52554  53.2174 341.1343 0002078  38.7599 321.3542 15.08841781 22885,6917.875,95.437,541.177,538.302,0.0
52554.0,STARLINK-3770,PAYLOAD,2022-10-07 21:12:31,15.08840632,0.0001933,53.217,340.2427,41.1789,318.9349,0.00010607,1.4e-05,0.0,0 STARLINK-3770,1 52554U 22051X   22280.88369535  .00001400  00000-0  10607-3 0  9994,2 52554  53.2170 340.2427 0001933  41.1789 318.9349 15.08840632 22849,6917.878000000002,95.438,541.081,538.406,0.0
52554.0,STARLINK-3770,PAYLOAD,2022-10-08 11:31:00,15.08829513,0.0001924,53.2182,337.56699999999995,42.5615,317.5526,-4.2632e-05,-9.66e-06,0.0,0 STARLINK-3770,1 52554U 22051X   22281.47986982 -.00000966  00000-0 -42632-4 0  9993,2 52554  53.2182 337.5670 0001924  42.5615 317.5526 15.08829513 22931,6917.9119999999975,95.438,541.1080000000002,538.446,0.0
52554.0,STARLINK-3770,PAYLOAD,2022-10-08 16:17:09,15.08834762,0.0001982,53.2179,336.6732,39.2355,320.878,-3.3853e-05,-8.27e-06,0.0,0 STARLINK-3770,1 52554U 22051X   22281.67858698 -.00000827  00000-0 -33853-4 0  9998,2 52554  53.2179 336.6732 0001982  39.2355 320.8780 15.08834762 22968,6917.896,95.438,541.133,538.39,0.0
52554.0,STARLINK-3770,PAYLOAD,2022-10-09 03:24:51,15.08845007,0.0001733,53.2176,334.5913,38.9615,321.1501,7.0513e-06,-1.76e-06,0.0,0 STARLINK-3770,1 52554U 22051X   22282.14225793 -.00000176  00000-0  70513-5 0  9996,2 52554  53.2176 334.5913 0001733  38.9615 321.1501 15.08845007 23108,6917.865,95.437,540.929,538.531,0.0
52554.0,STARLINK-3770,PAYLOAD,2022-10-09 11:21:46,15.0884172,0.0002099,53.2175,333.1055,36.1835,323.9299,3.6579e-05,2.94e-06,0.0,0 STARLINK-3770,1 52554U 22051X   22282.47346016  .00000294  00000-0  36579-4 0  9997,2 52554  53.2175 333.1055 0002099  36.1835 323.9299 15.08841720 23088,6917.875,95.437,541.192,538.288,0.0
52554.0,STARLINK-3770,PAYLOAD,2022-10-09 14:32:33,15.08836165,0.0002070999999999,53.2174,332.5117,36.614,323.4993,-1.3973e-05,-5.11e-06,0.0,0 STARLINK-3770,1 52554U 22051X   22282.60594497 -.00000511  00000-0 -13973-4 0  9997,2 52554  53.2174 332.5117 0002071  36.6140 323.4993 15.08836165 23176,6917.892,95.438,541.19,538.3240000000002,0.0
52554.0,STARLINK-3770,PAYLOAD,2022-10-09 20:54:05,15.08838518,0.0001799,53.2166,331.3222,36.5768,323.5347,5.3837e-05,5.69e-06,0.0,0 STARLINK-3770,1 52554U 22051X   22282.87090126  .00000569  00000-0  53837-4 0  9990,2 52554  53.2166 331.3222 0001799  36.5768 323.5347 15.08838518 23147,6917.885,95.438,540.994,538.505,0.0
52554.0,STARLINK-3770,PAYLOAD,2022-10-10 09:37:11,15.08834937,0.0001908,53.2175,328.9433,39.8077,320.3055,0.00012302,1.67e-05,0.0,0 STARLINK-3770,1 52554U 22051X   22283.40082507  .00001670  00000-0  12302-3 0  9999,2 52554  53.2175 328.9433 0001908  39.8077 320.3055 15.08834937 23225,6917.896,95.438,541.081,538.441,0.0
52554.0,STARLINK-3770,PAYLOAD,2022-10-10 20:44:53,15.08831126,0.0002023,53.2171,326.8602,42.6122,317.5027,5.9405e-05,6.57e-06,0.0,0 STARLINK-3770,1 52554U 22051X   22283.86451115  .00000657  00000-0  59405-4 0  9994,2 52554  53.2171 326.8602 0002023  42.6122 317.5027 15.08831126 23299,6917.908,95.438,541.172,538.373,0.0
52554.0,STARLINK-3770,PAYLOAD,2022-10-11 09:27:59,15.08827507,0.0001943,53.2175,324.4815,38.4294,321.6836,-4.8373e-05,-1.058e-05,0.0,0 STARLINK-3770,1 52554U 22051X   22284.39443725 -.00001058  00000-0 -48373-4 0  9991,2 52554  53.2175 324.4815 0001943  38.4294 321.6836 15.08827507 23377,6917.919,95.438,541.128,538.439,0.0
52554.0,STARLINK-3770,PAYLOAD,2022-10-11 12:38:46,15.08823827,0.0001976,53.2171,323.8864,37.7506,322.3624,-7.7209e-05,-1.516e-05,0.0,0 STARLINK-3770,1 52554U 22051X   22284.52692137 -.00001516  00000-0 -77209-4 0  9998,2 52554  53.2171 323.8864 0001976  37.7506 322.3624 15.08823827 23468,6917.93,95.439,541.1619999999998,538.428,0.0
52554.0,STARLINK-3770,PAYLOAD,2022-10-12 12:29:33,15.08830598,0.0002029,53.2167,319.4259,34.25,325.8623,-1.7337e-05,-5.64e-06,0.0,0 STARLINK-3770,1 52554U 22051X   22285.52052338 -.00000564  00000-0 -17337-4 0  9990,2 52554  53.2167 319.4259 0002029  34.2500 325.8623 15.08830598 23547,6917.909000000002,95.438,541.178,538.37,0.0
52554.0,STARLINK-3770,PAYLOAD,2022-10-13 01:12:37,15.08871544,0.0002103,53.2166,317.0466,31.9687,328.1432,-0.00036429,-6.086e-05,0.0,0 STARLINK-3770,1 52554U 22051X   22286.05042933 -.00006086  00000-0 -36429-3 0  9996,2 52554  53.2166 317.0466 0002103  31.9687 328.1432 15.08871544 23699,6917.784000000002,95.436,541.104,538.194,0.0
52554.0,STARLINK-3770,PAYLOAD,2022-10-13 09:09:33,15.08834846,0.0001963,53.217,315.56,36.1916,323.9209,0.00010831,1.436e-05,0.0,0 STARLINK-3770,1 52554U 22051X   22286.38164153  .00001436  00000-0  10831-3 0  9992,2 52554  53.2170 315.5600 0001963  36.1916 323.9209 15.08834846 23679,6917.896,95.438,541.119,538.403,0.0
52554.0,STARLINK-3770,PAYLOAD,2022-10-13 13:55:43,15.08830108,0.0002037,53.2171,314.6681,36.1937,323.9193,0.00019545,2.823e-05,0.0,0 STARLINK-3770,1 52554U 22051X   22286.58036381  .00002823  00000-0  19545-3 0  9997,2 52554  53.2171 314.6681 0002037  36.1937 323.9193 15.08830108 23775,6917.911,95.438,541.185,538.366,0.0
52554.0,STARLINK-3770,PAYLOAD,2022-10-13 18:41:52,15.08836772,0.0002112,53.217,313.7762,35.837,324.2763,0.00024476,3.609e-05,0.0,0 STARLINK-3770,1 52554U 22051X   22286.77907951  .00003609  00000-0  24476-3 0  9990,2 52554  53.2170 313.7762 0002112  35.8370 324.2763 15.08836772 23731,6917.89,95.438,541.216,538.294,0.0
52554.0,STARLINK-3770,PAYLOAD,2022-10-14 05:49:34,15.08840668,0.000213,53.2174,311.6948,37.1552,322.9587,0.00018591,2.672e-05,0.0,0 STARLINK-3770,1 52554U 22051X   22287.24275887  .00002672  00000-0  18591-3 0  9999,2 52554  53.2174 311.6948 0002130  37.1552 322.9587 15.08840668 23878,6917.878000000002,95.438,541.217,538.27,0.0
52554.0,STARLINK-3770,PAYLOAD,2022-10-14 12:11:07,15.08835443,0.0002058,53.2166,310.5055,36.876,323.2373,0.00015078,2.112e-05,0.0,0 STARLINK-3770,1 52554U 22051X   22287.50772389  .00002112  00000-0  15078-3 0  9993,2 52554  53.2166 310.5055 0002058  36.8760 323.2373 15.08835443 23841,6917.894,95.438,541.183,538.336,0.0
52554.0,STARLINK-3770,PAYLOAD,2022-10-14 18:32:39,15.0883532,0.00021,53.2165,309.316,36.1453,323.968,0.0001325,1.821e-05,0.0,0 STARLINK-3770,1 52554U 22051X   22287.77268448  .00001821  00000-0  13250-3 0  9994,2 52554  53.2165 309.3160 0002100  36.1453 323.9680 15.08835320 23889,6917.895,95.438,541.212,538.307,0.0
52554.0,STARLINK-3770,PAYLOAD,2022-10-15 08:51:07,15.08851581,0.0002134999999999,53.2161,306.6392,39.8485,320.2664,0.00017606,2.516e-05,0.0,0 STARLINK-3770,1 52554U 22051X   22288.36883291  .00002516  00000-0  17606-3 0  9990,2 52554  53.2161 306.6392 0002135  39.8485 320.2664 15.08851581 24043,6917.845,95.437,541.187,538.2330000000002,0.0
52554.0,STARLINK-3770,PAYLOAD,2022-10-15 13:37:16,15.08846617,0.0002251999999999,53.2161,305.7475,39.3996,320.716,7.9722e-05,9.81e-06,0.0,0 STARLINK-3770,1 52554U 22051X   22288.56755384  .00000981  00000-0  79722-4 0  9995,2 52554  53.2161 305.7475 0002252  39.3996 320.7160 15.08846617 24003,6917.86,95.437,541.283,538.1669999999998,0.0
52554.0,STARLINK-3770,PAYLOAD,2022-10-16 07:06:30,15.08845568,0.0002355,53.2163,302.476,41.2681,318.8488,1.9657e-05,2.5e-07,0.0,0 STARLINK-3770,1 52554U 22051X   22289.29619164  .00000025  00000-0  19657-4 0  9991,2 52554  53.2163 302.4760 0002355  41.2681 318.8488 15.08845568 24187,6917.863,95.437,541.3580000000002,538.099,0.0
52554.0,STARLINK-3770,PAYLOAD,2022-10-16 18:14:12,15.08846177,0.0002537,53.2168,300.3954,40.009,320.1088,0.00010592,1.398e-05,0.0,0 STARLINK-3770,1 52554U 22051X   22289.75987037  .00001398  00000-0  10592-3 0  9991,2 52554  53.2168 300.3954 0002537  40.0090 320.1088 15.08846177 24186,6917.861999999999,95.437,541.482,537.971,0.0
52554.0,STARLINK-3770,PAYLOAD,2022-10-17 03:46:32,15.08843467,0.0002125,53.2166,298.6103,43.1036,317.0123,2.9266e-06,-2.42e-06,0.0,0 STARLINK-3770,1 52554U 22051X   22290.15731546 -.00000242  00000-0  29266-5 0  9997,2 52554  53.2166 298.6103 0002125  43.1036 317.0123 15.08843467 24315,6917.87,95.437,541.205,538.265,0.0
52554.0,STARLINK-3770,PAYLOAD,2022-10-17 11:43:28,15.08837893,0.0002159,53.2174,297.1237,49.7155,310.4026,-0.00013147,-2.380000000000001e-05,0.0,0 STARLINK-3770,1 52554U 22051X   22290.48852138 -.00002380  00000-0 -13147-3 0  9999,2 52554  53.2174 297.1237 0002159  49.7155 310.4026 15.08837893 24367,6917.887,95.438,541.245,538.258,0.0
52554.0,STARLINK-3770,PAYLOAD,2022-10-18 11:34:15,15.08832303,0.0002231999999999,53.2158,292.6637,34.5653,325.5484,2.5217e-05,1.13e-06,0.0,0 STARLINK-3770,1 52554U 22051X   22291.48212361  .00000113  00000-0  25217-4 0  9990,2 52554  53.2158 292.6637 0002232  34.5653 325.5484 15.08832303 24445,6917.904,95.438,541.313,538.225,0.0
